{"epoch":1784762836,"count":18316,"objects":[{"id":"55797","name":"ONEWEB-0534","type":"PAYLOAD","l1":"1 55797U 23029B   26203.22928409 -.00000031  00000-0 -10889-3 0  9993","l2":"2 55797  87.9169 267.4840 0002087 101.2437 258.8931 13.20769254165772"},{"id":"55798","name":"ONEWEB-0556","type":"PAYLOAD","l1":"1 55798U 23029C   26203.23602818  .00000059  00000-0  11345-3 0  9994","l2":"2 55798  87.9163 267.4810 0001472 120.1854 239.9425 13.20771609165779"},{"id":"55799","name":"ONEWEB-0562","type":"PAYLOAD","l1":"1 55799U 23029D   26203.22255225  .00000062  00000-0  12058-3 0  9996","l2":"2 55799  87.9169 267.4650 0001192  92.2219 267.9051 13.20772940165776"},{"id":"55800","name":"ONEWEB-0563","type":"PAYLOAD","l1":"1 55800U 23029E   26203.21750969  .00000049  00000-0  89734-4 0  9994","l2":"2 55800  87.9170 267.4969 0002147 104.8836 255.2535 13.20770366165766"},{"id":"55801","name":"ONEWEB-0564","type":"PAYLOAD","l1":"1 55801U 23029F   26203.43804368  .00000067  00000-0  13259-3 0  9990","l2":"2 55801  87.9166 267.4262 0001686  93.8814 266.2513 13.20772427165801"},{"id":"55802","name":"ONEWEB-0638","type":"PAYLOAD","l1":"1 55802U 23029G   26203.48335817 -.00000160  00000-0 -46582-3 0  9995","l2":"2 55802  87.8950 282.7160 0001556 108.6623 251.4675 13.14504906164035"},{"id":"55803","name":"ONEWEB-0639","type":"PAYLOAD","l1":"1 55803U 23029H   26203.51416493 -.00000019  00000-0 -78884-4 0  9994","l2":"2 55803  87.9183 297.9417 0002830 113.6426 246.5004 13.19723664163568"},{"id":"55804","name":"ONEWEB-0640","type":"PAYLOAD","l1":"1 55804U 23029J   26203.26453362 -.00000117  00000-0 -35083-3 0  9995","l2":"2 55804  87.8953 282.7508 0001800 119.5771 240.5539 13.14502802164023"},{"id":"55805","name":"ONEWEB-0641","type":"PAYLOAD","l1":"1 55805U 23029K   26203.28198689  .00000081  00000-0  16997-3 0  9997","l2":"2 55805  87.9191 297.9798 0002063 104.5946 255.5416 13.19728032163544"},{"id":"55806","name":"ONEWEB-0642","type":"PAYLOAD","l1":"1 55806U 23029L   26203.27724541  .00000052  00000-0  97130-4 0  9996","l2":"2 55806  87.9183 297.9902 0002824 107.7046 252.4395 13.19727019163539"},{"id":"55807","name":"ONEWEB-0643","type":"PAYLOAD","l1":"1 55807U 23029M   26203.23440771 -.00000039  00000-0 -14001-3 0  9995","l2":"2 55807  87.8954 282.7440 0002717 101.5494 258.5941 13.14502742163997"},{"id":"55808","name":"ONEWEB-0644","type":"PAYLOAD","l1":"1 55808U 23029N   26203.27251106  .00000035  00000-0  55036-4 0  9990","l2":"2 55808  87.9182 297.9919 0002378 103.5844 256.5554 13.19726472163536"},{"id":"55809","name":"ONEWEB-0645","type":"PAYLOAD","l1":"1 55809U 23029P   26203.29462214  .00000107  00000-0  23561-3 0  9994","l2":"2 55809  87.9181 297.9843 0002187 112.7287 247.4078 13.19726355163533"},{"id":"55810","name":"ONEWEB-0646","type":"PAYLOAD","l1":"1 55810U 23029Q   26203.31198902  .00000059  00000-0  11586-3 0  9999","l2":"2 55810  87.9184 297.9816 0002244 100.4165 259.7220 13.19724361163520"},{"id":"55811","name":"ONEWEB-0648","type":"PAYLOAD","l1":"1 55811U 23029R   26203.50715522  .00000165  00000-0  40995-3 0  9998","l2":"2 55811  87.8963 282.6670 0002625 118.7266 241.4128 13.14503203164038"},{"id":"55812","name":"ONEWEB-0649","type":"PAYLOAD","l1":"1 55812U 23029S   26203.48889242 -.00000009  00000-0 -54919-4 0  9998","l2":"2 55812  87.9184 297.9443 0002172 106.9658 253.1713 13.19724201163580"},{"id":"55813","name":"ONEWEB-0650","type":"PAYLOAD","l1":"1 55813U 23029T   26203.33252574 -.00000045  00000-0 -14455-3 0  9995","l2":"2 55813  87.9185 297.9779 0002566 106.5086 253.6329 13.19724300163535"},{"id":"55814","name":"ONEWEB-0652","type":"PAYLOAD","l1":"1 55814U 23029U   26203.48812774 -.00000164  00000-0 -47691-3 0  9996","l2":"2 55814  87.8954 282.6763 0001995  95.1448 264.9909 13.14502841164004"},{"id":"55815","name":"ONEWEB-0653","type":"PAYLOAD","l1":"1 55815U 23029V   26203.47226893 -.00000064  00000-0 -20585-3 0  9999","l2":"2 55815  87.8967 282.6789 0001961  99.6500 260.4852 13.14502055164036"},{"id":"55816","name":"ONEWEB-0654","type":"PAYLOAD","l1":"1 55816U 23029W   26203.46750993 -.00000054  00000-0 -17981-3 0  9997","l2":"2 55816  87.8966 282.6758 0001706  92.6386 267.4939 13.14502830164050"},{"id":"55817","name":"ONEWEB-0656","type":"PAYLOAD","l1":"1 55817U 23029X   26203.43131378  .00000098  00000-0  20957-3 0  9998","l2":"2 55817  87.9178 267.4077 0001775  88.2053 271.9284 13.20770519165805"},{"id":"55818","name":"ONEWEB-0657","type":"PAYLOAD","l1":"1 55818U 23029Y   26203.55525315  .00000019  00000-0  15313-4 0  9994","l2":"2 55818  87.9181 297.9317 0001961  77.7631 282.3721 13.19727590163570"},{"id":"55819","name":"ONEWEB-0658","type":"PAYLOAD","l1":"1 55819U 23029Z   26203.32305239 -.00000006  00000-0 -48000-4 0  9998","l2":"2 55819  87.9193 297.9567 0002399 103.8102 256.3298 13.19726895163556"},{"id":"55820","name":"ONEWEB-0660","type":"PAYLOAD","l1":"1 55820U 23029AA  26203.29307798  .00000230  00000-0  58508-3 0  9998","l2":"2 55820  87.8971 282.7064 0002031 109.1073 251.0277 13.14501771164014"},{"id":"55821","name":"ONEWEB-0661","type":"PAYLOAD","l1":"1 55821U 23029AB  26203.25184767 -.00000249  00000-0 -70557-3 0  9994","l2":"2 55821  87.8945 282.7530 0001933 107.3041 252.8300 13.14502980163994"},{"id":"55822","name":"ONEWEB-0662","type":"PAYLOAD","l1":"1 55822U 23029AC  26203.51509443  .00000329  00000-0  85272-3 0  9993","l2":"2 55822  87.8952 282.7068 0002032 108.5673 251.5677 13.14503604164071"},{"id":"55823","name":"ONEWEB-0663","type":"PAYLOAD","l1":"1 55823U 23029AD  26203.23511857 -.00000028  00000-0 -10124-3 0  9997","l2":"2 55823  87.9181 267.5173 0002276 108.1184 252.0198 13.20871546165770"},{"id":"55824","name":"ONEWEB-0664","type":"PAYLOAD","l1":"1 55824U 23029AE  26203.56936247  .00000087  00000-0  18133-3 0  9999","l2":"2 55824  87.9164 267.4272 0001619 106.8864 253.2447 13.20772722165812"},{"id":"55825","name":"ONEWEB-0665","type":"PAYLOAD","l1":"1 55825U 23029AF  26203.47703210 -.00000153  00000-0 -44761-3 0  9994","l2":"2 55825  87.8952 282.6897 0002154 108.0816 252.0548 13.14502945164049"},{"id":"55826","name":"ONEWEB-0666","type":"PAYLOAD","l1":"1 55826U 23029AG  26203.18382968  .00000019  00000-0  15385-4 0  9996","l2":"2 55826  87.9167 267.4950 0002311  80.2217 279.9177 13.20770332165772"}]}