OBJECT_NAME,OBJECT_ID,EPOCH,MEAN_MOTION,ECCENTRICITY,INCLINATION,RA_OF_ASC_NODE,ARG_OF_PERICENTER,MEAN_ANOMALY,EPHEMERIS_TYPE,CLASSIFICATION_TYPE,NORAD_CAT_ID,ELEMENT_SET_NO,REV_AT_EPOCH,BSTAR,MEAN_MOTION_DOT,MEAN_MOTION_DDOT
ONEWEB-0534,2023-029B,2026-07-22T05:30:10.145376,13.20769254,.00020874,87.9169,267.4840,101.2437,258.8931,0,U,55797,999,16577,-.10889069E-3,-.31E-6,0
ONEWEB-0556,2023-029C,2026-07-22T05:39:52.834752,13.20771609,.00014721,87.9163,267.4810,120.1854,239.9425,0,U,55798,999,16577,.11344522E-3,.59E-6,0
ONEWEB-0562,2023-029D,2026-07-22T05:20:28.514400,13.20772940,.00011916,87.9169,267.4650,92.2219,267.9051,0,U,55799,999,16577,.12058161E-3,.62E-6,0
ONEWEB-0563,2023-029E,2026-07-22T05:13:12.837216,13.20770366,.00021466,87.9170,267.4969,104.8836,255.2535,0,U,55800,999,16576,.89734206E-4,.49E-6,0
ONEWEB-0564,2023-029F,2026-07-22T10:30:46.973952,13.20772427,.0001686,87.9166,267.4262,93.8814,266.2513,0,U,55801,999,16580,.13258721E-3,.67E-6,0
ONEWEB-0638,2023-029G,2026-07-22T11:36:02.145888,13.14504906,.00015556,87.8950,282.7160,108.6623,251.4675,0,U,55802,999,16403,-.46582223E-3,-.16E-5,0
ONEWEB-0639,2023-029H,2026-07-22T12:20:23.849952,13.19723664,.00028296,87.9183,297.9417,113.6426,246.5004,0,U,55803,999,16356,-.7888421E-4,-.19E-6,0
ONEWEB-0640,2023-029J,2026-07-22T06:20:55.704768,13.14502802,.00018,87.8953,282.7508,119.5771,240.5539,0,U,55804,999,16402,-.35083272E-3,-.117E-5,0
ONEWEB-0641,2023-029K,2026-07-22T06:46:03.667296,13.19728032,.00020633,87.9191,297.9798,104.5946,255.5416,0,U,55805,999,16354,.16997007E-3,.81E-6,0
ONEWEB-0642,2023-029L,2026-07-22T06:39:14.003424,13.19727019,.00028243,87.9183,297.9902,107.7046,252.4395,0,U,55806,999,16353,.97130223E-4,.52E-6,0
ONEWEB-0643,2023-029M,2026-07-22T05:37:32.826144,13.14502742,.00027169,87.8954,282.7440,101.5494,258.5941,0,U,55807,999,16399,-.14001049E-3,-.39E-6,0
ONEWEB-0644,2023-029N,2026-07-22T06:32:24.955584,13.19726472,.00023784,87.9182,297.9919,103.5844,256.5554,0,U,55808,999,16353,.55035771E-4,.35E-6,0
ONEWEB-0645,2023-029P,2026-07-22T07:04:15.352896,13.19726355,.00021868,87.9181,297.9843,112.7287,247.4078,0,U,55809,999,16353,.23561277E-3,.107E-5,0
ONEWEB-0646,2023-029Q,2026-07-22T07:29:15.851328,13.19724361,.00022438,87.9184,297.9816,100.4165,259.7220,0,U,55810,999,16352,.11586195E-3,.59E-6,0
ONEWEB-0648,2023-029R,2026-07-22T12:10:18.211008,13.14503203,.00026254,87.8963,282.6670,118.7266,241.4128,0,U,55811,999,16403,.40995453E-3,.165E-5,0
ONEWEB-0649,2023-029S,2026-07-22T11:44:00.305088,13.19724201,.00021725,87.9184,297.9443,106.9658,253.1713,0,U,55812,999,16358,-.54918681E-4,-.9E-7,0
ONEWEB-0650,2023-029T,2026-07-22T07:58:50.223936,13.19724300,.0002566,87.9185,297.9779,106.5086,253.6329,0,U,55813,999,16353,-.1445479E-3,-.45E-6,0
ONEWEB-0652,2023-029U,2026-07-22T11:42:54.236736,13.14502841,.00019953,87.8954,282.6763,95.1448,264.9909,0,U,55814,999,16400,-.47690901E-3,-.164E-5,0
ONEWEB-0653,2023-029V,2026-07-22T11:20:04.035552,13.14502055,.00019614,87.8967,282.6789,99.6500,260.4852,0,U,55815,999,16403,-.20585221E-3,-.64E-6,0
ONEWEB-0654,2023-029W,2026-07-22T11:13:12.857952,13.14502830,.00017059,87.8966,282.6758,92.6386,267.4939,0,U,55816,999,16405,-.17980617E-3,-.54E-6,0
ONEWEB-0656,2023-029X,2026-07-22T10:21:05.510592,13.20770519,.00017748,87.9178,267.4077,88.2053,271.9284,0,U,55817,999,16580,.20957231E-3,.98E-6,0
ONEWEB-0657,2023-029Y,2026-07-22T13:19:33.872160,13.19727590,.00019606,87.9181,297.9317,77.7631,282.3721,0,U,55818,999,16357,.15312537E-4,.19E-6,0
ONEWEB-0658,2023-029Z,2026-07-22T07:45:11.726496,13.19726895,.00023989,87.9193,297.9567,103.8102,256.3298,0,U,55819,999,16355,-.47999849E-4,-.6E-7,0
ONEWEB-0660,2023-029AA,2026-07-22T07:02:01.937472,13.14501771,.00020308,87.8971,282.7064,109.1073,251.0277,0,U,55820,999,16401,.58507837E-3,.23E-5,0
ONEWEB-0661,2023-029AB,2026-07-22T06:02:39.638688,13.14502980,.00019328,87.8945,282.7530,107.3041,252.8300,0,U,55821,999,16399,-.70556879E-3,-.249E-5,0
ONEWEB-0662,2023-029AC,2026-07-22T12:21:44.158752,13.14503604,.0002032,87.8952,282.7068,108.5673,251.5677,0,U,55822,999,16407,.85272297E-3,.329E-5,0
ONEWEB-0663,2023-029AD,2026-07-22T05:38:34.244448,13.20871546,.00022763,87.9181,267.5173,108.1184,252.0198,0,U,55823,999,16577,-.10124159E-3,-.28E-6,0
ONEWEB-0664,2023-029AE,2026-07-22T13:39:52.917408,13.20772722,.00016189,87.9164,267.4272,106.8864,253.2447,0,U,55824,999,16581,.18133405E-3,.87E-6,0
ONEWEB-0665,2023-029AF,2026-07-22T11:26:55.573440,13.14502945,.00021544,87.8952,282.6897,108.0816,252.0548,0,U,55825,999,16404,-.44761238E-3,-.153E-5,0
ONEWEB-0666,2023-029AG,2026-07-22T04:24:42.884352,13.20770332,.00023107,87.9167,267.4950,80.2217,279.9177,0,U,55826,999,16577,.15384548E-4,.19E-6,0
